#aV2006  2 13  0  0   .00000000      96 DD+AD WGS84 FIT  NGA
## 1362  86400.00000000   900.00000000 53779  .0000000000000
+   29     1  2  3  4  5  6  7  8  9 10 11 13 14 15 16 17 18
+         19 20 21 22 23 24 25 26 27 28 29 30  0  0  0  0  0
+          0  0  0  0  0  0  0  0  0  0  0  0  0  0  0  0  0
+          0  0  0  0  0  0  0  0  0  0  0  0  0  0  0  0  0
+          0  0  0  0  0  0  0  0  0  0  0  0  0  0  0  0  0
++         0  0  0  0  0  0  0  0  0  0  0  0  0  0  0  0  0
++         0  0  0  0  0  0  0  0  0  0  0  0  0  0  0  0  0
++         0  0  0  0  0  0  0  0  0  0  0  0  0  0  0  0  0
++         0  0  0  0  0  0  0  0  0  0  0  0  0  0  0  0  0
++         0  0  0  0  0  0  0  0  0  0  0  0  0  0  0  0  0
%c cc cc ccc ccc cccc cccc cccc cccc ccccc ccccc ccccc ccccc
%c cc cc ccc ccc cccc cccc cccc cccc ccccc ccccc ccccc ccccc
%f  0.0000000  0.000000000  0.00000000000  0.000000000000000
%f  0.0000000  0.000000000  0.00000000000  0.000000000000000
%i    0    0    0    0      0      0      0      0         0
%i    0    0    0    0      0      0      0      0         0
/*      NGA, ST. LOUIS,MO.                                  
/*   EPHEMERIS COMPUTED FROM  3 DAYS OF DATA                
/* CCCCCCCCCCCCCCCCCCCCCCCCCCCCCCCCCCCCCCCCCCCCCCCCCCCCCCCCC
/* CCCCCCCCCCCCCCCCCCCCCCCCCCCCCCCCCCCCCCCCCCCCCCCCCCCCCCCCC
*  2006  2 13 18  0   .00000000                                                 
P  1  -7759.093972  17204.701755  18870.189201     36.516403                    
V  1 -21831.485738   8747.002353 -17172.965301       .020155                    
P  2  -5114.545538 -18723.953088  17932.141087    -18.651010                    
V  2  20361.446669  11434.534660  17309.195315       .014584                    
P  3   -419.740831  17752.743052 -19829.678850     74.517220                    
V  3 -22148.865146  11796.711477  11421.546226       .029015                    
P  4   6999.914994 -13831.966664  21512.329424    148.253630                    
V  4  22831.380575  15259.597742   2729.161364       .114668                    
P  5 -13698.288112 -13296.733182  18339.603388   -568.448564                    
V  5   1321.430507 -23730.179105 -15883.417973       .909786                    
P  6 -24201.127828   4316.253512  10346.730676    321.299853                    
V  6   9881.682743  -8842.986050  27223.312838       .350534                    
P  7  -4858.780188 -15463.316246  21466.213933    494.690924                    
V  7  23164.667995 -12669.957514  -4110.558114       .082146                    
P  8  14983.159595  -6902.268547 -21047.100233    -56.528680                    
V  8  20976.025214  15813.334377   9424.864730      -.012652                    
P  9 -21350.822994 -15808.871084  -3384.116908      7.672251                    
V  9   4412.019317   -296.206915 -31148.974722       .015835                    
P 10  -2459.790898 -25427.695668  -6719.339338     78.651520                    
V 10   3177.510580  -8246.983991  30735.520986       .006632                    
P 11  23037.404641  13249.168280  -2553.549804    306.624855                    
V 11  -4817.483436   2702.684328 -29923.362701       .027124                    
P 13  24512.237651  -5331.729732   8557.284739     41.139962                    
V 13  -9155.945287   6274.927101  29934.555719       .023782                    
P 14 -19770.843375  15694.207470   8256.452836    -19.495146                    
V 14 -10171.284702   2803.776432 -29980.811318       .006168                    
P 15 -15856.601098   6089.830975 -20676.900822    565.343571                    
V 15 -19905.889776 -16413.526897  10146.453807       .058916                    
P 16  -2332.018506  26400.787656    699.954507     26.319683                    
V 16  -2780.507277   -988.473313  31836.461518       .018083                    
P 17  20635.465277 -15340.641326   6457.857456     49.991136                    
V 17   8627.350508  -1186.180926 -30357.921883       .080015                    
P 18 -15314.778051   4979.622226 -20975.342905   -220.545954                    
V 18   1983.590254 -26857.035537  -8074.742222      -.021401                    
P 19  12142.331786  10804.846456 -20910.367173    -21.613249                    
V 19 -24346.819117  11199.579981  -8278.306517       .009249                    
P 20  12780.196571  13084.206763  19183.318318    -32.823096                    
V 20  -2651.798894  24431.234309 -14800.723396       .008824                    
P 21 -21675.577930  -1774.896694 -15541.861390      5.167778                    
V 21 -14763.792679 -13124.773611  21522.528190       .033772                    
P 22 -12098.086496  18947.253447 -13990.190622     68.373008                    
V 22   -219.199989 -18183.392746 -24161.675918       .029789                    
P 23  19476.975812   3843.816601  17628.713845    150.599164                    
V 23 -19445.980521  11389.057429  18758.031711      -.014675                    
P 24  18867.118474  -2440.157458  18874.701425     85.220734                    
V 24  18058.484671  14905.694303 -16090.173006       .030925                    
P 25  -2530.661974  15975.408119  21455.786647   -113.936128                    
V 25 -23499.898874 -11949.636468   6353.029350       .381283                    
P 26  -7913.894608 -12569.989102 -22408.547355    -36.921547                    
V 26  24922.983905 -11524.141159  -1800.448199      -.086001                    
P 27  21948.539401    841.292564 -14588.173903     35.672729                    
V 27  15760.997437  11572.098694  23080.606300       .016016                    
P 28  12818.948222 -15956.083709 -16464.449832     33.372899                    
V 28    403.818004  21657.493966 -20685.029593      -.007013                    
P 29  -3219.484561 -14523.660853 -21730.463739    532.294795                    
V 29  25254.770410 -12441.742566   4767.728160       .121204                    
P 30 -15311.662504  -2679.622556  21267.891967     24.649212                    
V 30    995.331712 -27690.415540  -2622.964684       .024282                    
EOF
